{"type": "FeatureCollection", "features": [ {"type": "Feature", "properties": {"norad_id": 30771, "name": "FENGYUN 1C DEB", "group": "fengyun-1c-debris", "lat": 5.9791823461411315, "lon": 155.5696862679991, "alt_km": 749.4150711648972, "timestamp": "2025-12-24T20:42:21.305436+00:00", "meta": {"OBJECT_NAME": "FENGYUN 1C DEB", "OBJECT_ID": "1999-025AUH", "EPOCH": "2025-12-24T04:55:37.253856", "MEAN_MOTION": 14.43346009, "ECCENTRICITY": 0.00222328, "INCLINATION": 98.9065, "RA_OF_ASC_NODE": 333.9415, "ARG_OF_PERICENTER": 265.4096, "MEAN_ANOMALY": 94.4553, "EPHEMERIS_TYPE": 0, "CLASSIFICATION_TYPE": "U", "NORAD_CAT_ID": 30771, "ELEMENT_SET_NO": 999, "REV_AT_EPOCH": 97229, "BSTAR": 0.0025788284, "MEAN_MOTION_DOT": 8.685e-05, "MEAN_MOTION_DDOT": 0}, "tle": {"line1": "1 30771U 99025AUH 25358.20529229  .00008685  00000+0  25788-2 0  9995", "line2": "2 30771  98.9065 333.9415 0022232 265.4096  94.4553 14.43346009972291"}}, "geometry": {"type": "Point", "coordinates": [155.5696862679991, 5.9791823461411315]}}, {"type": "Feature", "properties": {"norad_id": 30802, "name": "FENGYUN 1C DEB", "group": "fengyun-1c-debris", "lat": -12.965060570832769, "lon": -96.16681464148685, "alt_km": 800.0603603515119, "timestamp": "2025-12-24T20:42:21.305461+00:00", "meta": {"OBJECT_NAME": "FENGYUN 1C DEB", "OBJECT_ID": "1999-025AUL", "EPOCH": "2025-12-24T04:58:13.272384", "MEAN_MOTION": 14.32547748, "ECCENTRICITY": 0.00175354, "INCLINATION": 98.8368, "RA_OF_ASC_NODE": 85.2176, "ARG_OF_PERICENTER": 5.8498, "MEAN_ANOMALY": 47.8089, "EPHEMERIS_TYPE": 0, "CLASSIFICATION_TYPE": "U", "NORAD_CAT_ID": 30802, "ELEMENT_SET_NO": 999, "REV_AT_EPOCH": 97367, "BSTAR": 0.0017513437, "MEAN_MOTION_DOT": 4.715e-05, "MEAN_MOTION_DDOT": 0}, "tle": {"line1": "1 30802U 99025AUL 25358.20709806  .00004715  00000+0  17513-2 0  9998", "line2": "2 30802  98.8368  85.2176 0017535   5.8498  47.8089 14.32547748973674"}}, "geometry": {"type": "Point", "coordinates": [-96.16681464148685, -12.965060570832769]}}, {"type": "Feature", "properties": {"norad_id": 30803, "name": "FENGYUN 1C DEB", "group": "fengyun-1c-debris", "lat": -46.34502351342668, "lon": 42.229773743208455, "alt_km": 925.1849015275975, "timestamp": "2025-12-24T20:42:21.305473+00:00", "meta": {"OBJECT_NAME": "FENGYUN 1C DEB", "OBJECT_ID": "1999-025AUM", "EPOCH": "2025-12-23T00:47:11.482656", "MEAN_MOTION": 14.11292129, "ECCENTRICITY": 0.01076426, "INCLINATION": 99.2448, "RA_OF_ASC_NODE": 30.5174, "ARG_OF_PERICENTER": 172.9934, "MEAN_ANOMALY": 206.8565, "EPHEMERIS_TYPE": 0, "CLASSIFICATION_TYPE": "U", "NORAD_CAT_ID": 30803, "ELEMENT_SET_NO": 999, "REV_AT_EPOCH": 96144, "BSTAR": 0.0013219036, "MEAN_MOTION_DOT": 2.475e-05, "MEAN_MOTION_DDOT": 0}, "tle": {"line1": "1 30803U 99025AUM 25357.03277179  .00002475  00000+0  13219-2 0  9992", "line2": "2 30803  99.2448  30.5174 0107642 172.9934 206.8565 14.11292129961445"}}, "geometry": {"type": "Point", "coordinates": [42.229773743208455, -46.34502351342668]}}, {"type": "Feature", "properties": {"norad_id": 30804, "name": "FENGYUN 1C DEB", "group": "fengyun-1c-debris", "lat": 66.49818082536896, "lon": 43.963774400921054, "alt_km": 691.4972378193561, "timestamp": "2025-12-24T20:42:21.305483+00:00", "meta": {"OBJECT_NAME": "FENGYUN 1C DEB", "OBJECT_ID": "1999-025AUN", "EPOCH": "2025-12-23T11:26:48.201792", "MEAN_MOTION": 14.54658789, "ECCENTRICITY": 0.01859375, "INCLINATION": 98.8933, "RA_OF_ASC_NODE": 63.5949, "ARG_OF_PERICENTER": 158.0454, "MEAN_ANOMALY": 219.3446, "EPHEMERIS_TYPE": 0, "CLASSIFICATION_TYPE": "U", "NORAD_CAT_ID": 30804, "ELEMENT_SET_NO": 999, "REV_AT_EPOCH": 99633, "BSTAR": 0.00044885961, "MEAN_MOTION_DOT": 2.358e-05, "MEAN_MOTION_DDOT": 0}, "tle": {"line1": "1 30804U 99025AUN 25357.47694678  .00002358  00000+0  44886-3 0  9993", "line2": "2 30804  98.8933  63.5949 0185937 158.0454 219.3446 14.54658789996339"}}, "geometry": {"type": "Point", "coordinates": [43.963774400921054, 66.49818082536896]}}, {"type": "Feature", "properties": {"norad_id": 30805, "name": "FENGYUN 1C DEB", "group": "fengyun-1c-debris", "lat": 54.79151288880126, "lon": -126.14556658720183, "alt_km": 908.1498452179321, "timestamp": "2025-12-24T20:42:21.305496+00:00", "meta": {"OBJECT_NAME": "FENGYUN 1C DEB", "OBJECT_ID": "1999-025AUP", "EPOCH": "2025-12-23T21:00:03.708288", "MEAN_MOTION": 14.02925929, "ECCENTRICITY": 0.0070581, "INCLINATION": 98.8196, "RA_OF_ASC_NODE": 40.1874, "ARG_OF_PERICENTER": 252.6893, "MEAN_ANOMALY": 286.4539, "EPHEMERIS_TYPE": 0, "CLASSIFICATION_TYPE": "U", "NORAD_CAT_ID": 30805, "ELEMENT_SET_NO": 999, "REV_AT_EPOCH": 96116, "BSTAR": 0.00098748, "MEAN_MOTION_DOT": 1.522e-05, "MEAN_MOTION_DDOT": 0}, "tle": {"line1": "1 30805U 99025AUP 25357.87504292  .00001522  00000+0  98748-3 0  9998", "line2": "2 30805  98.8196  40.1874 0070581 252.6893 286.4539 14.02925929961162"}}, "geometry": {"type": "Point", "coordinates": [-126.14556658720183, 54.79151288880126]}}, {"type": "Feature", "properties": {"norad_id": 30806, "name": "FENGYUN 1C DEB", "group": "fengyun-1c-debris", "lat": 13.23147026815052, "lon": -153.17635680909504, "alt_km": 920.2144307298713, "timestamp": "2025-12-24T20:42:21.305507+00:00", "meta": {"OBJECT_NAME": "FENGYUN 1C DEB", "OBJECT_ID": "1999-025AUQ", "EPOCH": "2025-12-22T21:12:00.277920", "MEAN_MOTION": 13.70435265, "ECCENTRICITY": 0.02679693, "INCLINATION": 99.035, "RA_OF_ASC_NODE": 22.8176, "ARG_OF_PERICENTER": 103.7502, "MEAN_ANOMALY": 19.5556, "EPHEMERIS_TYPE": 0, "CLASSIFICATION_TYPE": "U", "NORAD_CAT_ID": 30806, "ELEMENT_SET_NO": 999, "REV_AT_EPOCH": 93834, "BSTAR": 0.00071835123, "MEAN_MOTION_DOT": 7.8e-06, "MEAN_MOTION_DDOT": 0}, "tle": {"line1": "1 30806U 99025AUQ 25356.88333655  .00000780  00000+0  71835-3 0  9995", "line2": "2 30806  99.0350  22.8176 0267969 103.7502  19.5556 13.70435265938342"}}, "geometry": {"type": "Point", "coordinates": [-153.17635680909504, 13.23147026815052]}}, {"type": "Feature", "properties": {"norad_id": 30809, "name": "FENGYUN 1C DEB", "group": "fengyun-1c-debris", "lat": 18.286741186097263, "lon": 85.0755220675033, "alt_km": 812.0956258043043, "timestamp": "2025-12-24T20:42:21.305518+00:00", "meta": {"OBJECT_NAME": "FENGYUN 1C DEB", "OBJECT_ID": "1999-025AUT", "EPOCH": "2025-12-23T04:17:49.751520", "MEAN_MOTION": 14.29314737, "ECCENTRICITY": 0.00521844, "INCLINATION": 98.7888, "RA_OF_ASC_NODE": 86.3085, "ARG_OF_PERICENTER": 142.2717, "MEAN_ANOMALY": 218.2142, "EPHEMERIS_TYPE": 0, "CLASSIFICATION_TYPE": "U", "NORAD_CAT_ID": 30809, "ELEMENT_SET_NO": 999, "REV_AT_EPOCH": 97236, "BSTAR": 0.0017567777, "MEAN_MOTION_DOT": 4.495e-05, "MEAN_MOTION_DDOT": 0}, "tle": {"line1": "1 30809U 99025AUT 25357.17904805  .00004495  00000+0  17568-2 0  9991", "line2": "2 30809  98.7888  86.3085 0052184 142.2717 218.2142 14.29314737972362"}}, "geometry": {"type": "Point", "coordinates": [85.0755220675033, 18.286741186097263]}}, {"type": "Feature", "properties": {"norad_id": 30810, "name": "FENGYUN 1C DEB", "group": "fengyun-1c-debris", "lat": 33.562338322491385, "lon": 164.44754380078572, "alt_km": 749.806933987812, "timestamp": "2025-12-24T20:42:21.305528+00:00", "meta": {"OBJECT_NAME": "FENGYUN 1C DEB", "OBJECT_ID": "1999-025AUU", "EPOCH": "2025-12-23T03:30:35.133408", "MEAN_MOTION": 14.04241497, "ECCENTRICITY": 0.01798853, "INCLINATION": 98.6617, "RA_OF_ASC_NODE": 168.6141, "ARG_OF_PERICENTER": 25.4923, "MEAN_ANOMALY": 335.4984, "EPHEMERIS_TYPE": 0, "CLASSIFICATION_TYPE": "U", "NORAD_CAT_ID": 30810, "ELEMENT_SET_NO": 999, "REV_AT_EPOCH": 94529, "BSTAR": 0.0028608678, "MEAN_MOTION_DOT": 5.209e-05, "MEAN_MOTION_DDOT": 0}, "tle": {"line1": "1 30810U 99025AUU 25357.14623997  .00005209  00000+0  28609-2 0  9992", "line2": "2 30810  98.6617 168.6141 0179885  25.4923 335.4984 14.04241497945292"}}, "geometry": {"type": "Point", "coordinates": [164.44754380078572, 33.562338322491385]}}, {"type": "Feature", "properties": {"norad_id": 30811, "name": "FENGYUN 1C DEB", "group": "fengyun-1c-debris", "lat": -81.19944105227275, "lon": 123.88481158625207, "alt_km": 1080.5240243912958, "timestamp": "2025-12-24T20:42:21.305540+00:00", "meta": {"OBJECT_NAME": "FENGYUN 1C DEB", "OBJECT_ID": "1999-025AUV", "EPOCH": "2025-12-24T01:44:19.374144", "MEAN_MOTION": 13.61876924, "ECCENTRICITY": 0.02779162, "INCLINATION": 98.7823, "RA_OF_ASC_NODE": 36.3167, "ARG_OF_PERICENTER": 16.5271, "MEAN_ANOMALY": 344.4713, "EPHEMERIS_TYPE": 0, "CLASSIFICATION_TYPE": "U", "NORAD_CAT_ID": 30811, "ELEMENT_SET_NO": 999, "REV_AT_EPOCH": 93021, "BSTAR": 0.001582937, "MEAN_MOTION_DOT": 1.538e-05, "MEAN_MOTION_DDOT": 0}, "tle": {"line1": "1 30811U 99025AUV 25358.07244646  .00001538  00000+0  15829-2 0  9997", "line2": "2 30811  98.7823  36.3167 0277916  16.5271 344.4713 13.61876924930210"}}, "geometry": {"type": "Point", "coordinates": [123.88481158625207, -81.19944105227275]}}, {"type": "Feature", "properties": {"norad_id": 30814, "name": "FENGYUN 1C DEB", "group": "fengyun-1c-debris", "lat": -49.7854313043056, "lon": -12.674411830366438, "alt_km": 706.9062663067625, "timestamp": "2025-12-24T20:42:21.305551+00:00", "meta": {"OBJECT_NAME": "FENGYUN 1C DEB", "OBJECT_ID": "1999-025AUY", "EPOCH": "2025-12-23T22:10:12.895104", "MEAN_MOTION": 14.60690949, "ECCENTRICITY": 0.0030489, "INCLINATION": 99.0828, "RA_OF_ASC_NODE": 335.3904, "ARG_OF_PERICENTER": 196.9166, "MEAN_ANOMALY": 217.365, "EPHEMERIS_TYPE": 0, "CLASSIFICATION_TYPE": "U", "NORAD_CAT_ID": 30814, "ELEMENT_SET_NO": 999, "REV_AT_EPOCH": 97905, "BSTAR": 0.0025004, "MEAN_MOTION_DOT": 0.00012225, "MEAN_MOTION_DDOT": 0}, "tle": {"line1": "1 30814U 99025AUY 25357.92376036  .00012225  00000+0  25004-2 0  9993", "line2": "2 30814  99.0828 335.3904 0030489 196.9166 217.3650 14.60690949979055"}}, "geometry": {"type": "Point", "coordinates": [-12.674411830366438, -49.7854313043056]}}]}